,ID,Address,Suburb,Price,Type,Date,Rooms,Bathroom,Car,Landsize,Age,Lattitude,Longtitude,train_station_id,distance_to_train_stat,travel_min_to_CBD,over_priced?,crime_A_average,crime_B_average,crime_C_average
549,ID629957356,172 Poath Rd,HUGHESDALE,1322000.0,h,28/08/2016,4,2.0,4.0,738.0,44.0,-37.8996,145.076,19918,544.5554058730597,3863.076923076923,0,79.38095238095238,225.8,53.55555555555556
550,ID197479218,2/1021 Toorak Rd,CAMBERWELL,590000.0,u,18/03/2017,2,1.0,1.0,0.0,49.0,-37.847,145.0672,19850,807.8741493294074,2844.0,0,470.9583333333333,3339.705882352941,557.0
551,ID363056997,5 John St,BRUNSWICK EAST,910000.0,h,24/09/2016,3,1.0,1.0,231.0,119.0,-37.7759,144.976,20017,1508.9694565763784,4218.461538461538,0,100.52380952380952,300.4,45.22222222222222
552,ID852864750,6 Munro St,ASCOT VALE,1435000.0,h,8/04/2017,3,1.0,1.0,450.0,99.0,-37.7756,144.9148,20039,618.5995998439895,2152.5,0,311.8333333333333,2261.4,423.0
553,ID342560219,5 Lola St,MULGRAVE,880000.0,h,23/09/2017,5,3.0,2.0,654.0,59.0,-37.92914,145.17372,19913,2882.22993848976,5476.363636363636,0,53.77272727272727,230.73333333333332,55.111111111111114
554,ID426208635,312/1005 Mt Alexander Rd,ESSENDON,330000.0,u,20/05/2017,1,1.0,1.0,0.0,5.0,-37.7478,144.912,20036,789.5228830969064,2032.5,1,156.70833333333334,1480.2666666666667,132.1818181818182
555,ID452593869,13 Francis St,RICHMOND,1165000.0,h,1/07/2017,2,1.0,1.0,149.0,5.0,-37.81954,145.00304,19907,926.8737688478785,3180.0,0,126.42857142857143,380.2,68.3
556,ID851322195,17 Winter Ct,MILL PARK,725000.0,h,27/05/2017,5,2.0,2.0,574.0,49.0,-37.66936,145.05413,45795,2519.8531324466258,1968.0,0,188.54166666666666,1214.6,184.55555555555554
557,ID899271664,22 Harker St,ALPHINGTON,1680000.0,h,3/09/2017,4,3.0,2.0,720.0,94.0,-37.77928,145.02993,19931,152.72285506846734,2430.0,0,151.83333333333334,1120.7333333333333,125.11111111111111
558,ID688135235,134 Atherton Rd,OAKLEIGH,1641000.0,h,19/11/2016,4,1.0,2.0,802.0,44.0,-37.9002,145.099,19917,939.3730928689995,3980.0,0,112.33333333333333,1305.9333333333334,130.9090909090909
559,ID586289137,1/15 Gilbertson St,ESSENDON,736000.0,u,23/04/2016,2,1.0,1.0,0.0,79.0,-37.7412,144.8974,20036,2177.298960735831,2032.5,1,143.04166666666666,1283.5625,102.45454545454545
560,ID752920142,13 Merrill St,MULGRAVE,757000.0,h,17/06/2017,3,1.0,1.0,664.0,59.0,-37.92773,145.16984,19913,2819.130997152797,5476.363636363636,0,53.77272727272727,230.73333333333332,55.111111111111114
561,ID201935997,1/12 Pascoe St,PASCOE VALE,360000.0,u,30/07/2016,2,1.0,1.0,119.0,79.0,-37.7161,144.9348,20033,1187.4860735473633,2004.0,0,85.95652173913044,1043.8666666666666,112.77777777777777
562,ID717860851,7/45 Gipps St,EAST MELBOURNE,750000.0,u,28/05/2016,1,1.0,0.0,0.0,89.0,-37.8136,144.9892,19978,246.49281315443642,4532.0,0,20.928571428571427,45.5625,11.0
563,ID826129659,1/185 Moreland Rd,COBURG,690000.0,t,3/06/2017,3,1.0,1.0,64.0,8.0,-37.75535,144.96481,19966,279.97271723109014,5317.5,0,137.20833333333334,1183.2,166.0
564,ID144957328,8/75 Hawdon St,HEIDELBERG,450000.0,u,12/08/2017,2,1.0,0.0,2020.0,21.0,-37.75692,145.06426000000005,19935,315.04625948560783,2742.8571428571427,0,156.70833333333334,1480.2666666666667,132.1818181818182
565,ID241021455,99 Kellett St,NORTHCOTE,1235000.0,h,29/04/2017,3,1.0,1.0,534.0,59.0,-37.7677,145.0142,19930,1298.944034656338,2310.0,0,26.625,68.93333333333334,13.11111111111111
566,ID136260795,33 Burrows St,BRIGHTON,1410000.0,h,19/11/2016,3,1.0,1.0,375.0,89.0,-37.9175,144.9949,19951,290.5846688998551,3754.7368421052633,0,343.0416666666667,1929.3125,260.0
567,ID768070812,2/92 Foote St,TEMPLESTOWE LOWER,940000.0,t,6/05/2017,3,2.0,3.0,281.0,8.0,-37.7586,145.1211,19986,4820.587505772203,3795.0,0,316.5416666666667,1022.8125,237.66666666666666
568,ID764204437,171 Bridge St,PORT MELBOURNE,1240000.0,h,3/12/2016,2,1.0,0.0,0.0,69.0,-37.836,144.9419,20043,2177.1141635690283,0,1,85.95652173913044,1043.8666666666666,112.77777777777777
569,ID339311340,28 Eildon Dr,KEYSBOROUGH,745000.0,h,29/07/2017,3,1.0,4.0,540.0,39.0,-37.9884,145.15925,19890,2821.4700945219274,5125.0,0,177.47826086956522,1281.7333333333333,207.5
570,ID805258392,16 Swallow St,PRESTON,1000000.0,h,26/07/2016,3,1.0,2.0,621.0,94.0,-37.7415,145.0084,20012,761.4982796490727,2304.0,0,85.95652173913044,1043.8666666666666,112.77777777777777
571,ID686471820,2/26 Vernon St,CROYDON,875000.0,h,1/07/2017,4,2.0,2.0,244.0,25.0,-37.80267,145.27569,19878,913.5819077095036,2988.0,0,44.2,168.13333333333333,36.888888888888886
572,ID998506246,1 Gladesville Dr,BENTLEIGH EAST,1220000.0,h,1/07/2017,5,2.0,2.0,611.0,69.0,-37.93228,145.07026000000005,19937,2952.2004340213452,2713.3333333333335,0,125.08695652173913,839.375,108.0
573,ID623048613,62A Williamstown Rd,KINGSVILLE,735000.0,h,17/06/2017,2,1.0,1.0,170.0,79.0,-37.80635,144.8845,20023,510.7023553411232,2070.0,0,128.7826086956522,403.1875,70.66666666666667
575,ID507753465,7/9 Hammond St,THORNBURY,466000.0,u,25/02/2017,2,1.0,1.0,909.0,104.0,-37.7633,145.0103,20015,1168.8742937856618,2362.5,0,316.5416666666667,1022.8125,237.66666666666666
576,ID695100163,35 Green St,IVANHOE,1420000.0,h,27/11/2016,5,3.0,1.0,455.0,13.0,-37.7653,145.0392,19933,678.5171067030561,2511.4285714285716,0,17.466666666666665,50.4,12.333333333333334
577,ID875147718,20 Kooyong Rd,ARMADALE,1715000.0,t,16/09/2017,3,3.0,1.0,1889.0,99.0,-37.86109,145.01994,19945,519.063030281379,2802.8571428571427,0,311.8333333333333,2261.4,423.0
578,ID968857699,32 Cumberland St,SUNSHINE NORTH,770000.0,h,9/09/2017,3,1.0,2.0,608.0,59.0,-37.77388,144.84368999999995,20004,1722.5310857241295,2665.0,0,176.5,1272.8,233.11111111111111
579,ID897110530,9 Tanner Av,KEW EAST,1600000.0,h,3/09/2017,4,2.0,2.0,12300.0,79.0,-37.79459,145.03921,19931,1933.9957527615286,2430.0,0,41.142857142857146,142.4,25.22222222222222
581,ID909555192,166 MacEdon Rd,TEMPLESTOWE LOWER,1098000.0,h,3/12/2016,3,2.0,1.0,649.0,47.0,-37.7615,145.1154,19936,4805.627799152808,2862.8571428571427,0,300.4583333333333,919.8235294117648,195.55555555555554
582,ID501412738,14 Fuller St,DIAMOND CREEK,898000.0,h,12/08/2017,4,3.0,2.0,705.0,7.0,-37.67309,145.14645,19988,1062.5044830568334,3120.0,0,415.875,2214.3333333333335,356.44444444444446
583,ID628436373,28 Tynan St,PRESTON,1000000.0,h,8/10/2016,3,1.0,2.0,463.0,69.0,-37.7339,144.9897,20012,1090.906599952769,4030.909090909091,0,85.95652173913044,1043.8666666666666,112.77777777777777
585,ID816916231,2/13 Oxford St,BOX HILL,572000.0,u,13/05/2017,2,1.0,1.0,0.0,5.0,-37.8219,145.1213,20042,298.36117156960097,3030.0,0,362.1666666666667,2108.0625,314.0
586,ID415941807,903 Rathdowne St,CARLTON NORTH,1840000.0,h,17/06/2017,3,1.0,1.0,311.0,99.0,-37.78305,144.97268,19969,1521.4565696383997,4965.0,0,470.9583333333333,3339.705882352941,557.0
587,ID183748113,1c Oak St,PRESTON,515000.0,u,25/02/2017,2,1.0,1.0,187.0,14.0,-37.7351,145.0323,20011,2704.3547115997117,5922.0,1,92.0,1027.4375,111.66666666666667
588,ID889825192,15 Viewbank Dr,KEILOR EAST,816000.0,h,4/03/2017,4,2.0,1.0,540.0,41.0,-37.7482,144.877,22253,3557.861287542179,1110.0,0,84.52380952380952,237.93333333333334,59.111111111111114
589,ID818788650,3 Parker St,PRESTON,916000.0,h,10/12/2016,3,1.0,3.0,523.0,44.0,-37.7314,145.0017,20011,346.74839586371746,1790.0,1,85.95652173913044,1043.8666666666666,112.77777777777777
590,ID887279611,288 Church St,RICHMOND,1555000.0,h,25/02/2017,3,2.0,1.0,189.0,119.0,-37.82,144.9987,19907,726.7730084863991,3144.5454545454545,0,126.42857142857143,380.2,68.3
591,ID830017807,3 The Crescent,HIGHETT,1190000.0,h,3/06/2017,3,1.0,1.0,635.0,59.0,-37.94654,145.04863,19872,629.2635234487996,2050.0,0,354.625,1868.7333333333333,330.72727272727275
592,ID343351012,16 Thorpe St,NEWPORT,1100000.0,h,29/04/2017,3,1.0,6.0,761.0,69.0,-37.8464,144.865,19994,1685.621616235008,1020.0,0,14.055555555555555,58.666666666666664,7.666666666666667
593,ID729528847,10 Oak St,HAWTHORN,3225000.0,h,13/08/2016,4,2.0,2.0,665.0,129.0,-37.814,145.0175,19905,992.124825484742,2780.0,0,143.04166666666666,1283.5625,102.45454545454545
594,ID286357015,169 Balcombe Rd,MENTONE,1700000.0,h,17/06/2017,4,2.0,2.0,731.0,39.0,-37.98035,145.05593000000005,19865,827.7445113005138,2963.076923076923,0,12.583333333333334,13.6,5.142857142857143
595,ID564219034,89 Marlborough St,FAWKNER,782000.0,h,25/02/2017,3,1.0,2.0,628.0,7.0,-37.718,144.9642,19963,413.8370732692803,4971.428571428572,0,156.70833333333334,1480.2666666666667,132.1818181818182
596,ID643545228,2 Riley Ct,BRAYBROOK,850000.0,h,8/10/2016,4,2.0,2.0,606.0,17.0,-37.788,144.862,20022,1255.172781625763,2190.0,0,343.0416666666667,1929.3125,260.0
597,ID362947557,95 Church St,HAWTHORN,1525000.0,h,20/05/2017,3,1.0,0.0,269.0,114.0,-37.8162,145.0206,19905,658.0828586501128,2509.090909090909,0,156.70833333333334,1480.2666666666667,132.1818181818182
598,ID561571614,790 North Rd,BENTLEIGH EAST,1600000.0,h,16/07/2016,5,2.0,2.0,659.0,89.0,-37.906,145.0547,19941,1360.9675585512148,2690.0,0,120.73913043478261,881.5,102.88888888888889
599,ID590249521,44 Thompson St,ORMOND,1250000.0,t,10/09/2016,3,2.0,2.0,326.0,19.0,-37.903,145.0285,19941,976.4296987881287,3000.0,0,36.59090909090909,147.2,42.77777777777778
601,ID663485292,15 Bishop St,COBURG,940500.0,h,13/05/2017,3,1.0,3.0,480.0,13.0,-37.7348,144.9509,19964,1060.7698293855478,4851.428571428572,0,137.20833333333334,1183.2,166.0
602,ID664288957,2206/60 Market St,MELBOURNE,450000.0,u,12/11/2016,1,1.0,0.0,0.0,59.0,-37.8178,144.9607,22238,553.7256331221641,2235.0,0,20.928571428571427,45.5625,11.0
603,ID823181673,4 Mary St,CARLTON NORTH,520000.0,u,24/09/2016,2,1.0,1.0,0.0,79.0,-37.7813,144.9773,20019,1346.127903595293,2380.0,0,462.9583333333333,3343.0588235294117,509.8333333333333
605,ID900588425,4/225 Maribyrnong Rd,ASCOT VALE,565000.0,t,13/05/2017,2,2.0,1.0,103.0,10.0,-37.7715,144.9088,20038,1116.7242383113996,2033.3333333333333,0,311.8333333333333,2261.4,423.0
606,ID400370155,36 Tyrone St,SOUTH YARRA,1540000.0,h,28/05/2016,3,2.0,1.0,149.0,16.0,-37.8448,144.9882,19958,545.1377802194634,1835.0,0,137.58333333333334,681.8125,137.2
